STARLINK-4403           
1 53197U 22084J   25212.74884251  .00000747  00000+0  62763-4 0  9997
2 53197  97.6553 273.7186 0002262 175.6940 184.4304 15.01260704166160
STARLINK-4385           
1 53198U 22084K   25212.75253788 -.00000345  00000+0 -22230-4 0  9995
2 53198  97.6544 273.7235 0000979 166.7025 193.4225 15.01270075166821
STARLINK-4395           
1 53199U 22084L   25212.75069463  .00003391  00000+0  26858-3 0  9992
2 53199  97.6552 273.7124 0001132 142.5986 217.5317 15.01250339166166
STARLINK-4417           
1 53200U 22084M   25212.74722844  .00000451  00000+0  39731-4 0  9992
2 53200  97.6544 273.7252 0002013 158.5583 201.5726 15.01270987166822
STARLINK-4405           
1 53201U 22084N   25212.73797641  .00000071  00000+0  10112-4 0  9999
2 53201  97.6550 273.7192 0003160 158.1246 202.0113 15.01255822166163
STARLINK-4411           
1 53202U 22084P   25212.74327902 -.00000227  00000+0 -13081-4 0  9993
2 53202  97.6553 273.7211 0003823 154.4262 205.7152 15.01256226166164
STARLINK-4409           
1 53203U 22084Q   25212.73957710  .00000152  00000+0  16414-4 0  9997
2 53203  97.6555 273.7086 0002924 165.8061 194.3246 15.01255274166160
STARLINK-4410           
1 53204U 22084R   25212.74353141  .00013933  00000+0  10861-2 0  9996
2 53204  97.6541 273.7159 0003903 163.6095 196.5256 15.01294379166825
STARLINK-4397           
1 53205U 22084S   25212.73587704 -.00000488  00000+0 -33375-4 0  9990
2 53205  97.6553 273.7051 0002507 127.5094 232.6358 15.01256818166165
STARLINK-4408           
1 53206U 22084T   25212.72476136  .00000343  00000+0  31268-4 0  9993
2 53206  97.6582 273.7391 0001378  95.1030 265.0352 15.01259657166168
STARLINK-4413           
1 53207U 22084U   25212.73402256 -.00002502  00000+0 -19018-3 0  9996
2 53207  97.6554 273.6959 0003708 154.1896 205.9514 15.01263274166165
STARLINK-4425           
1 53208U 22084V   25212.74142903 -.00000910  00000+0 -66258-4 0  9998
2 53208  97.6550 273.7100 0003579 158.1168 202.0210 15.01260181166168
STARLINK-4423           
1 53209U 22084W   25212.93237754  .00000077  00000+0  10618-4 0  9990
2 53209  97.6557 273.8994 0002563 108.2432 251.9071 15.01268681166194
STARLINK-4427           
1 53210U 22084X   25212.73772400  .00000509  00000+0  44197-4 0  9991
2 53210  97.6549 273.7067 0003700 158.3531 201.7850 15.01259290166708
STARLINK-4416           
1 53212U 22084Z   25212.93212981  .00000050  00000+0  84954-5 0  9995
2 53212  97.6558 273.8992 0002638 114.3583 245.7917 15.01260567166189
STARLINK-4414           
1 53213U 22084AA  25212.72291489  .00002231  00000+0  17831-3 0  9994
2 53213  97.6570 273.7053 0001560 100.8044 259.3355 15.01248836166683
STARLINK-4353           
1 53214U 22084AB  25212.73032208  .00000145  00000+0  15883-4 0  9996
2 53214  97.6558 273.7015 0002576 102.5034 257.6479 15.01260100166163
