[{"OBJECT_NAME":"STARLINK-4403","OBJECT_ID":"2022-084J","EPOCH":"2025-07-31T17:58:19.992864","MEAN_MOTION":15.01260704,"ECCENTRICITY":0.0002262,"INCLINATION":97.6553,"RA_OF_ASC_NODE":273.7186,"ARG_OF_PERICENTER":175.694,"MEAN_ANOMALY":184.4304,"EPHEMERIS_TYPE":0,"CLASSIFICATION_TYPE":"U","NORAD_CAT_ID":53197,"ELEMENT_SET_NO":999,"REV_AT_EPOCH":16616,"BSTAR":6.2763e-5,"MEAN_MOTION_DOT":7.47e-6,"MEAN_MOTION_DDOT":0},{"OBJECT_NAME":"STARLINK-4385","OBJECT_ID":"2022-084K","EPOCH":"2025-07-31T18:03:39.272832","MEAN_MOTION":15.01270075,"ECCENTRICITY":9.79e-5,"INCLINATION":97.6544,"RA_OF_ASC_NODE":273.7235,"ARG_OF_PERICENTER":166.7025,"MEAN_ANOMALY":193.4225,"EPHEMERIS_TYPE":0,"CLASSIFICATION_TYPE":"U","NORAD_CAT_ID":53198,"ELEMENT_SET_NO":999,"REV_AT_EPOCH":16682,"BSTAR":-2.223e-5,"MEAN_MOTION_DOT":-3.45e-6,"MEAN_MOTION_DDOT":0},{"OBJECT_NAME":"STARLINK-4395","OBJECT_ID":"2022-084L","EPOCH":"2025-07-31T18:01:00.016032","MEAN_MOTION":15.01250339,"ECCENTRICITY":0.0001132,"INCLINATION":97.6552,"RA_OF_ASC_NODE":273.7124,"ARG_OF_PERICENTER":142.5986,"MEAN_ANOMALY":217.5317,"EPHEMERIS_TYPE":0,"CLASSIFICATION_TYPE":"U","NORAD_CAT_ID":53199,"ELEMENT_SET_NO":999,"REV_AT_EPOCH":16616,"BSTAR":0.00026858,"MEAN_MOTION_DOT":3.391e-5,"MEAN_MOTION_DDOT":0},{"OBJECT_NAME":"STARLINK-4417","OBJECT_ID":"2022-084M","EPOCH":"2025-07-31T17:56:00.537216","MEAN_MOTION":15.01270987,"ECCENTRICITY":0.0002013,"INCLINATION":97.6544,"RA_OF_ASC_NODE":273.7252,"ARG_OF_PERICENTER":158.5583,"MEAN_ANOMALY":201.5726,"EPHEMERIS_TYPE":0,"CLASSIFICATION_TYPE":"U","NORAD_CAT_ID":53200,"ELEMENT_SET_NO":999,"REV_AT_EPOCH":16682,"BSTAR":3.9731e-5,"MEAN_MOTION_DOT":4.51e-6,"MEAN_MOTION_DDOT":0},{"OBJECT_NAME":"STARLINK-4405","OBJECT_ID":"2022-084N","EPOCH":"2025-07-31T17:42:41.161824","MEAN_MOTION":15.01255822,"ECCENTRICITY":0.000316,"INCLINATION":97.655,"RA_OF_ASC_NODE":273.7192,"ARG_OF_PERICENTER":158.1246,"MEAN_ANOMALY":202.0113,"EPHEMERIS_TYPE":0,"CLASSIFICATION_TYPE":"U","NORAD_CAT_ID":53201,"ELEMENT_SET_NO":999,"REV_AT_EPOCH":16616,"BSTAR":1.0112e-5,"MEAN_MOTION_DOT":7.1e-7,"MEAN_MOTION_DDOT":0},{"OBJECT_NAME":"STARLINK-4411","OBJECT_ID":"2022-084P","EPOCH":"2025-07-31T17:50:19.307328","MEAN_MOTION":15.01256226,"ECCENTRICITY":0.0003823,"INCLINATION":97.6553,"RA_OF_ASC_NODE":273.7211,"ARG_OF_PERICENTER":154.4262,"MEAN_ANOMALY":205.7152,"EPHEMERIS_TYPE":0,"CLASSIFICATION_TYPE":"U","NORAD_CAT_ID":53202,"ELEMENT_SET_NO":999,"REV_AT_EPOCH":16616,"BSTAR":-1.3081e-5,"MEAN_MOTION_DOT":-2.27e-6,"MEAN_MOTION_DDOT":0},{"OBJECT_NAME":"STARLINK-4409","OBJECT_ID":"2022-084Q","EPOCH":"2025-07-31T17:44:59.461440","MEAN_MOTION":15.01255274,"ECCENTRICITY":0.0002924,"INCLINATION":97.6555,"RA_OF_ASC_NODE":273.7086,"ARG_OF_PERICENTER":165.8061,"MEAN_ANOMALY":194.3246,"EPHEMERIS_TYPE":0,"CLASSIFICATION_TYPE":"U","NORAD_CAT_ID":53203,"ELEMENT_SET_NO":999,"REV_AT_EPOCH":16616,"BSTAR":1.6414e-5,"MEAN_MOTION_DOT":1.52e-6,"MEAN_MOTION_DDOT":0},{"OBJECT_NAME":"STARLINK-4410","OBJECT_ID":"2022-084R","EPOCH":"2025-07-31T17:50:41.113824","MEAN_MOTION":15.01294379,"ECCENTRICITY":0.0003903,"INCLINATION":97.6541,"RA_OF_ASC_NODE":273.7159,"ARG_OF_PERICENTER":163.6095,"MEAN_ANOMALY":196.5256,"EPHEMERIS_TYPE":0,"CLASSIFICATION_TYPE":"U","NORAD_CAT_ID":53204,"ELEMENT_SET_NO":999,"REV_AT_EPOCH":16682,"BSTAR":0.0010861,"MEAN_MOTION_DOT":0.00013933,"MEAN_MOTION_DDOT":0},{"OBJECT_NAME":"STARLINK-4397","OBJECT_ID":"2022-084S","EPOCH":"2025-07-31T17:39:39.776256","MEAN_MOTION":15.01256818,"ECCENTRICITY":0.0002507,"INCLINATION":97.6553,"RA_OF_ASC_NODE":273.7051,"ARG_OF_PERICENTER":127.5094,"MEAN_ANOMALY":232.6358,"EPHEMERIS_TYPE":0,"CLASSIFICATION_TYPE":"U","NORAD_CAT_ID":53205,"ELEMENT_SET_NO":999,"REV_AT_EPOCH":16616,"BSTAR":-3.3375e-5,"MEAN_MOTION_DOT":-4.88e-6,"MEAN_MOTION_DDOT":0},{"OBJECT_NAME":"STARLINK-4408","OBJECT_ID":"2022-084T","EPOCH":"2025-07-31T17:23:39.381504","MEAN_MOTION":15.01259657,"ECCENTRICITY":0.0001378,"INCLINATION":97.6582,"RA_OF_ASC_NODE":273.7391,"ARG_OF_PERICENTER":95.103,"MEAN_ANOMALY":265.0352,"EPHEMERIS_TYPE":0,"CLASSIFICATION_TYPE":"U","NORAD_CAT_ID":53206,"ELEMENT_SET_NO":999,"REV_AT_EPOCH":16616,"BSTAR":3.1268e-5,"MEAN_MOTION_DOT":3.43e-6,"MEAN_MOTION_DDOT":0},{"OBJECT_NAME":"STARLINK-4413","OBJECT_ID":"2022-084U","EPOCH":"2025-07-31T17:36:59.549184","MEAN_MOTION":15.01263274,"ECCENTRICITY":0.0003708,"INCLINATION":97.6554,"RA_OF_ASC_NODE":273.6959,"ARG_OF_PERICENTER":154.1896,"MEAN_ANOMALY":205.9514,"EPHEMERIS_TYPE":0,"CLASSIFICATION_TYPE":"U","NORAD_CAT_ID":53207,"ELEMENT_SET_NO":999,"REV_AT_EPOCH":16616,"BSTAR":-0.00019018,"MEAN_MOTION_DOT":-2.502e-5,"MEAN_MOTION_DDOT":0},{"OBJECT_NAME":"STARLINK-4425","OBJECT_ID":"2022-084V","EPOCH":"2025-07-31T17:47:39.468192","MEAN_MOTION":15.01260181,"ECCENTRICITY":0.0003579,"INCLINATION":97.655,"RA_OF_ASC_NODE":273.71,"ARG_OF_PERICENTER":158.1168,"MEAN_ANOMALY":202.021,"EPHEMERIS_TYPE":0,"CLASSIFICATION_TYPE":"U","NORAD_CAT_ID":53208,"ELEMENT_SET_NO":999,"REV_AT_EPOCH":16616,"BSTAR":-6.6258e-5,"MEAN_MOTION_DOT":-9.1e-6,"MEAN_MOTION_DDOT":0},{"OBJECT_NAME":"STARLINK-4423","OBJECT_ID":"2022-084W","EPOCH":"2025-07-31T22:22:37.419456","MEAN_MOTION":15.01268681,"ECCENTRICITY":0.0002563,"INCLINATION":97.6557,"RA_OF_ASC_NODE":273.8994,"ARG_OF_PERICENTER":108.2432,"MEAN_ANOMALY":251.9071,"EPHEMERIS_TYPE":0,"CLASSIFICATION_TYPE":"U","NORAD_CAT_ID":53209,"ELEMENT_SET_NO":999,"REV_AT_EPOCH":16619,"BSTAR":1.0618e-5,"MEAN_MOTION_DOT":7.7e-7,"MEAN_MOTION_DDOT":0},{"OBJECT_NAME":"STARLINK-4427","OBJECT_ID":"2022-084X","EPOCH":"2025-07-31T17:42:19.353600","MEAN_MOTION":15.0125929,"ECCENTRICITY":0.00037,"INCLINATION":97.6549,"RA_OF_ASC_NODE":273.7067,"ARG_OF_PERICENTER":158.3531,"MEAN_ANOMALY":201.785,"EPHEMERIS_TYPE":0,"CLASSIFICATION_TYPE":"U","NORAD_CAT_ID":53210,"ELEMENT_SET_NO":999,"REV_AT_EPOCH":16670,"BSTAR":4.4197e-5,"MEAN_MOTION_DOT":5.09e-6,"MEAN_MOTION_DDOT":0},{"OBJECT_NAME":"STARLINK-4416","OBJECT_ID":"2022-084Z","EPOCH":"2025-07-31T22:22:16.015584","MEAN_MOTION":15.01260567,"ECCENTRICITY":0.0002638,"INCLINATION":97.6558,"RA_OF_ASC_NODE":273.8992,"ARG_OF_PERICENTER":114.3583,"MEAN_ANOMALY":245.7917,"EPHEMERIS_TYPE":0,"CLASSIFICATION_TYPE":"U","NORAD_CAT_ID":53212,"ELEMENT_SET_NO":999,"REV_AT_EPOCH":16618,"BSTAR":8.4954e-6,"MEAN_MOTION_DOT":5.0e-7,"MEAN_MOTION_DDOT":0},{"OBJECT_NAME":"STARLINK-4414","OBJECT_ID":"2022-084AA","EPOCH":"2025-07-31T17:20:59.846496","MEAN_MOTION":15.01248836,"ECCENTRICITY":0.000156,"INCLINATION":97.657,"RA_OF_ASC_NODE":273.7053,"ARG_OF_PERICENTER":100.8044,"MEAN_ANOMALY":259.3355,"EPHEMERIS_TYPE":0,"CLASSIFICATION_TYPE":"U","NORAD_CAT_ID":53213,"ELEMENT_SET_NO":999,"REV_AT_EPOCH":16668,"BSTAR":0.00017831,"MEAN_MOTION_DOT":2.231e-5,"MEAN_MOTION_DDOT":0},{"OBJECT_NAME":"STARLINK-4353","OBJECT_ID":"2022-084AB","EPOCH":"2025-07-31T17:31:39.827712","MEAN_MOTION":15.012601,"ECCENTRICITY":0.0002576,"INCLINATION":97.6558,"RA_OF_ASC_NODE":273.7015,"ARG_OF_PERICENTER":102.5034,"MEAN_ANOMALY":257.6479,"EPHEMERIS_TYPE":0,"CLASSIFICATION_TYPE":"U","NORAD_CAT_ID":53214,"ELEMENT_SET_NO":999,"REV_AT_EPOCH":16616,"BSTAR":1.5883e-5,"MEAN_MOTION_DOT":1.45e-6,"MEAN_MOTION_DDOT":0}]
